[{"OBJECT_NAME":"GALAXY 32 (G-32)","OBJECT_ID":"2022-153B","EPOCH":"2026-03-09T21:57:50.592960","MEAN_MOTION":1.00269782,"ECCENTRICITY":0.00030163,"INCLINATION":0.015,"RA_OF_ASC_NODE":138.2743,"ARG_OF_PERICENTER":224.8677,"MEAN_ANOMALY":42.92,"EPHEMERIS_TYPE":0,"CLASSIFICATION_TYPE":"U","NORAD_CAT_ID":54244,"ELEMENT_SET_NO":999,"REV_AT_EPOCH":1214,"BSTAR":0,"MEAN_MOTION_DOT":0,"MEAN_MOTION_DDOT":0},{"OBJECT_NAME":"INTELSAT 40E (IS-40E)","OBJECT_ID":"2023-052A","EPOCH":"2026-03-09T20:15:15.430176","MEAN_MOTION":1.00271238,"ECCENTRICITY":7.762e-5,"INCLINATION":0.0089,"RA_OF_ASC_NODE":167.1496,"ARG_OF_PERICENTER":220.7974,"MEAN_ANOMALY":352.3705,"EPHEMERIS_TYPE":0,"CLASSIFICATION_TYPE":"U","NORAD_CAT_ID":56174,"ELEMENT_SET_NO":999,"REV_AT_EPOCH":1082,"BSTAR":0,"MEAN_MOTION_DOT":-1.72e-6,"MEAN_MOTION_DDOT":0}]
